[{"OBJECT_NAME":"STARLINK-34429","OBJECT_ID":"2025-130AC","EPOCH":"2025-10-23T14:11:32.628768","MEAN_MOTION":15.3021322,"ECCENTRICITY":0.0001537,"INCLINATION":53.1617,"RA_OF_ASC_NODE":5.2712,"ARG_OF_PERICENTER":95.4871,"MEAN_ANOMALY":264.6305,"EPHEMERIS_TYPE":0,"CLASSIFICATION_TYPE":"U","NORAD_CAT_ID":64464,"ELEMENT_SET_NO":999,"REV_AT_EPOCH":1971,"BSTAR":0.00071902,"MEAN_MOTION_DOT":0.00021005,"MEAN_MOTION_DDOT":0},{"OBJECT_NAME":"STARLINK-34449","OBJECT_ID":"2025-130AD","EPOCH":"2025-10-23T14:37:22.400256","MEAN_MOTION":15.30197253,"ECCENTRICITY":0.0001386,"INCLINATION":53.1607,"RA_OF_ASC_NODE":5.3799,"ARG_OF_PERICENTER":84.6025,"MEAN_ANOMALY":275.5134,"EPHEMERIS_TYPE":0,"CLASSIFICATION_TYPE":"U","NORAD_CAT_ID":64465,"ELEMENT_SET_NO":999,"REV_AT_EPOCH":1971,"BSTAR":0.0013383,"MEAN_MOTION_DOT":0.00039483,"MEAN_MOTION_DDOT":0},{"OBJECT_NAME":"STARLINK-34493","OBJECT_ID":"2025-133A","EPOCH":"2025-10-23T13:28:07.323168","MEAN_MOTION":15.39602379,"ECCENTRICITY":0.0001307,"INCLINATION":53.1606,"RA_OF_ASC_NODE":35.8648,"ARG_OF_PERICENTER":73.1403,"MEAN_ANOMALY":286.9745,"EPHEMERIS_TYPE":0,"CLASSIFICATION_TYPE":"U","NORAD_CAT_ID":64472,"ELEMENT_SET_NO":999,"REV_AT_EPOCH":2016,"BSTAR":0.0017311,"MEAN_MOTION_DOT":0.00069434,"MEAN_MOTION_DDOT":0},{"OBJECT_NAME":"STARLINK-34492","OBJECT_ID":"2025-133B","EPOCH":"2025-10-23T16:28:51.414816","MEAN_MOTION":15.39642285,"ECCENTRICITY":8.36e-5,"INCLINATION":53.1607,"RA_OF_ASC_NODE":35.2265,"ARG_OF_PERICENTER":70.2482,"MEAN_ANOMALY":289.8613,"EPHEMERIS_TYPE":0,"CLASSIFICATION_TYPE":"U","NORAD_CAT_ID":64473,"ELEMENT_SET_NO":999,"REV_AT_EPOCH":2018,"BSTAR":0.0011573,"MEAN_MOTION_DOT":0.00046204,"MEAN_MOTION_DDOT":0},{"OBJECT_NAME":"STARLINK-34474","OBJECT_ID":"2025-133C","EPOCH":"2025-10-23T16:28:21.707040","MEAN_MOTION":15.39658927,"ECCENTRICITY":0.0001161,"INCLINATION":53.1603,"RA_OF_ASC_NODE":35.2251,"ARG_OF_PERICENTER":63.3228,"MEAN_ANOMALY":296.7896,"EPHEMERIS_TYPE":0,"CLASSIFICATION_TYPE":"U","NORAD_CAT_ID":64474,"ELEMENT_SET_NO":999,"REV_AT_EPOCH":2016,"BSTAR":0.00040333,"MEAN_MOTION_DOT":0.00015787,"MEAN_MOTION_DDOT":0},{"OBJECT_NAME":"STARLINK-34523","OBJECT_ID":"2025-133D","EPOCH":"2025-10-23T16:22:11.243712","MEAN_MOTION":15.39618526,"ECCENTRICITY":0.0001332,"INCLINATION":53.1603,"RA_OF_ASC_NODE":35.1968,"ARG_OF_PERICENTER":85.691,"MEAN_ANOMALY":274.4247,"EPHEMERIS_TYPE":0,"CLASSIFICATION_TYPE":"U","NORAD_CAT_ID":64475,"ELEMENT_SET_NO":999,"REV_AT_EPOCH":2016,"BSTAR":0.002001,"MEAN_MOTION_DOT":0.00080482,"MEAN_MOTION_DDOT":0},{"OBJECT_NAME":"STARLINK-34496","OBJECT_ID":"2025-133E","EPOCH":"2025-10-23T13:14:45.002400","MEAN_MOTION":15.39612604,"ECCENTRICITY":0.0001027,"INCLINATION":53.16,"RA_OF_ASC_NODE":35.8068,"ARG_OF_PERICENTER":98.1698,"MEAN_ANOMALY":261.9424,"EPHEMERIS_TYPE":0,"CLASSIFICATION_TYPE":"U","NORAD_CAT_ID":64476,"ELEMENT_SET_NO":999,"REV_AT_EPOCH":2016,"BSTAR":0.0014904,"MEAN_MOTION_DOT":0.00059668,"MEAN_MOTION_DDOT":0},{"OBJECT_NAME":"STARLINK-34375","OBJECT_ID":"2025-133F","EPOCH":"2025-10-23T13:08:32.653824","MEAN_MOTION":15.39661612,"ECCENTRICITY":0.000131,"INCLINATION":53.1609,"RA_OF_ASC_NODE":35.7793,"ARG_OF_PERICENTER":103.9765,"MEAN_ANOMALY":256.1386,"EPHEMERIS_TYPE":0,"CLASSIFICATION_TYPE":"U","NORAD_CAT_ID":64477,"ELEMENT_SET_NO":999,"REV_AT_EPOCH":2016,"BSTAR":0.0016279,"MEAN_MOTION_DOT":0.00065364,"MEAN_MOTION_DDOT":0},{"OBJECT_NAME":"STARLINK-34490","OBJECT_ID":"2025-133G","EPOCH":"2025-10-23T13:01:51.400992","MEAN_MOTION":15.39614984,"ECCENTRICITY":0.00012,"INCLINATION":53.1605,"RA_OF_ASC_NODE":35.7487,"ARG_OF_PERICENTER":92.1481,"MEAN_ANOMALY":267.9661,"EPHEMERIS_TYPE":0,"CLASSIFICATION_TYPE":"U","NORAD_CAT_ID":64478,"ELEMENT_SET_NO":999,"REV_AT_EPOCH":2016,"BSTAR":0.001657,"MEAN_MOTION_DOT":0.00066446,"MEAN_MOTION_DDOT":0},{"OBJECT_NAME":"STARLINK-34528","OBJECT_ID":"2025-133H","EPOCH":"2025-10-23T13:08:03.816960","MEAN_MOTION":15.39612834,"ECCENTRICITY":0.0001392,"INCLINATION":53.1606,"RA_OF_ASC_NODE":35.7758,"ARG_OF_PERICENTER":97.0421,"MEAN_ANOMALY":263.0743,"EPHEMERIS_TYPE":0,"CLASSIFICATION_TYPE":"U","NORAD_CAT_ID":64479,"ELEMENT_SET_NO":999,"REV_AT_EPOCH":2014,"BSTAR":0.0016913,"MEAN_MOTION_DOT":0.00067839,"MEAN_MOTION_DDOT":0},{"OBJECT_NAME":"STARLINK-34518","OBJECT_ID":"2025-133J","EPOCH":"2025-10-23T13:01:22.354176","MEAN_MOTION":15.39631424,"ECCENTRICITY":0.00014,"INCLINATION":53.1611,"RA_OF_ASC_NODE":35.7484,"ARG_OF_PERICENTER":59.2424,"MEAN_ANOMALY":300.8719,"EPHEMERIS_TYPE":0,"CLASSIFICATION_TYPE":"U","NORAD_CAT_ID":64480,"ELEMENT_SET_NO":999,"REV_AT_EPOCH":2000,"BSTAR":0.0015044,"MEAN_MOTION_DOT":0.00060277,"MEAN_MOTION_DDOT":0},{"OBJECT_NAME":"STARLINK-34526","OBJECT_ID":"2025-133K","EPOCH":"2025-10-23T16:02:07.416096","MEAN_MOTION":15.39629219,"ECCENTRICITY":0.0001542,"INCLINATION":53.1596,"RA_OF_ASC_NODE":35.1077,"ARG_OF_PERICENTER":73.2725,"MEAN_ANOMALY":286.8449,"EPHEMERIS_TYPE":0,"CLASSIFICATION_TYPE":"U","NORAD_CAT_ID":64481,"ELEMENT_SET_NO":999,"REV_AT_EPOCH":2007,"BSTAR":0.0013366,"MEAN_MOTION_DOT":0.00053457,"MEAN_MOTION_DDOT":0},{"OBJECT_NAME":"STARLINK-34527","OBJECT_ID":"2025-133L","EPOCH":"2025-10-23T16:01:38.492832","MEAN_MOTION":15.39608064,"ECCENTRICITY":0.0001476,"INCLINATION":53.1592,"RA_OF_ASC_NODE":35.1055,"ARG_OF_PERICENTER":70.2462,"MEAN_ANOMALY":289.8702,"EPHEMERIS_TYPE":0,"CLASSIFICATION_TYPE":"U","NORAD_CAT_ID":64482,"ELEMENT_SET_NO":999,"REV_AT_EPOCH":2018,"BSTAR":0.0011214,"MEAN_MOTION_DOT":0.00044702,"MEAN_MOTION_DDOT":0},{"OBJECT_NAME":"STARLINK-34420","OBJECT_ID":"2025-133M","EPOCH":"2025-10-23T14:21:57.320640","MEAN_MOTION":15.39639036,"ECCENTRICITY":9.87e-5,"INCLINATION":53.1615,"RA_OF_ASC_NODE":35.385,"ARG_OF_PERICENTER":89.8949,"MEAN_ANOMALY":270.2169,"EPHEMERIS_TYPE":0,"CLASSIFICATION_TYPE":"U","NORAD_CAT_ID":64483,"ELEMENT_SET_NO":999,"REV_AT_EPOCH":2017,"BSTAR":0.0016323,"MEAN_MOTION_DOT":0.00065494,"MEAN_MOTION_DDOT":0},{"OBJECT_NAME":"STARLINK-34509","OBJECT_ID":"2025-133N","EPOCH":"2025-10-23T15:54:57.061152","MEAN_MOTION":15.39646026,"ECCENTRICITY":9.58e-5,"INCLINATION":53.1604,"RA_OF_ASC_NODE":35.0768,"ARG_OF_PERICENTER":23.3549,"MEAN_ANOMALY":336.75,"EPHEMERIS_TYPE":0,"CLASSIFICATION_TYPE":"U","NORAD_CAT_ID":64484,"ELEMENT_SET_NO":999,"REV_AT_EPOCH":2018,"BSTAR":0.0012945,"MEAN_MOTION_DOT":0.00051774,"MEAN_MOTION_DDOT":0},{"OBJECT_NAME":"STARLINK-34409","OBJECT_ID":"2025-133P","EPOCH":"2025-10-23T15:48:44.970912","MEAN_MOTION":15.39627534,"ECCENTRICITY":0.0001163,"INCLINATION":53.1599,"RA_OF_ASC_NODE":35.0477,"ARG_OF_PERICENTER":114.6281,"MEAN_ANOMALY":245.4845,"EPHEMERIS_TYPE":0,"CLASSIFICATION_TYPE":"U","NORAD_CAT_ID":64485,"ELEMENT_SET_NO":999,"REV_AT_EPOCH":2018,"BSTAR":0.0017628,"MEAN_MOTION_DOT":0.00070786,"MEAN_MOTION_DDOT":0},{"OBJECT_NAME":"STARLINK-34520","OBJECT_ID":"2025-133Q","EPOCH":"2025-10-23T15:48:16.092576","MEAN_MOTION":15.39622824,"ECCENTRICITY":0.0001371,"INCLINATION":53.1603,"RA_OF_ASC_NODE":35.0456,"ARG_OF_PERICENTER":78.4818,"MEAN_ANOMALY":281.6341,"EPHEMERIS_TYPE":0,"CLASSIFICATION_TYPE":"U","NORAD_CAT_ID":64486,"ELEMENT_SET_NO":999,"REV_AT_EPOCH":2018,"BSTAR":0.0016125,"MEAN_MOTION_DOT":0.00064653,"MEAN_MOTION_DDOT":0},{"OBJECT_NAME":"STARLINK-34477","OBJECT_ID":"2025-133R","EPOCH":"2025-10-23T15:42:03.352608","MEAN_MOTION":15.39644244,"ECCENTRICITY":5.54e-5,"INCLINATION":53.1608,"RA_OF_ASC_NODE":35.0181,"ARG_OF_PERICENTER":154.3017,"MEAN_ANOMALY":205.8015,"EPHEMERIS_TYPE":0,"CLASSIFICATION_TYPE":"U","NORAD_CAT_ID":64487,"ELEMENT_SET_NO":999,"REV_AT_EPOCH":2018,"BSTAR":0.0011709,"MEAN_MOTION_DOT":0.00046758,"MEAN_MOTION_DDOT":0},{"OBJECT_NAME":"STARLINK-34217","OBJECT_ID":"2025-133S","EPOCH":"2025-10-23T15:41:35.017728","MEAN_MOTION":15.39624838,"ECCENTRICITY":0.0001316,"INCLINATION":53.1607,"RA_OF_ASC_NODE":35.0159,"ARG_OF_PERICENTER":82.0573,"MEAN_ANOMALY":278.0581,"EPHEMERIS_TYPE":0,"CLASSIFICATION_TYPE":"U","NORAD_CAT_ID":64488,"ELEMENT_SET_NO":999,"REV_AT_EPOCH":2007,"BSTAR":0.0019455,"MEAN_MOTION_DOT":0.00078233,"MEAN_MOTION_DDOT":0},{"OBJECT_NAME":"STARLINK-34307","OBJECT_ID":"2025-133T","EPOCH":"2025-10-23T10:54:55.444896","MEAN_MOTION":15.39693017,"ECCENTRICITY":0.0004038,"INCLINATION":53.1598,"RA_OF_ASC_NODE":35.905,"ARG_OF_PERICENTER":149.1195,"MEAN_ANOMALY":211.0048,"EPHEMERIS_TYPE":0,"CLASSIFICATION_TYPE":"U","NORAD_CAT_ID":64489,"ELEMENT_SET_NO":999,"REV_AT_EPOCH":2013,"BSTAR":0.0021706,"MEAN_MOTION_DOT":0.00087653,"MEAN_MOTION_DDOT":0},{"OBJECT_NAME":"STARLINK-34505","OBJECT_ID":"2025-133U","EPOCH":"2025-10-23T15:34:53.238720","MEAN_MOTION":15.39614727,"ECCENTRICITY":0.0002749,"INCLINATION":53.1599,"RA_OF_ASC_NODE":34.9851,"ARG_OF_PERICENTER":134.8399,"MEAN_ANOMALY":225.2829,"EPHEMERIS_TYPE":0,"CLASSIFICATION_TYPE":"U","NORAD_CAT_ID":64490,"ELEMENT_SET_NO":999,"REV_AT_EPOCH":2016,"BSTAR":0.00090354,"MEAN_MOTION_DOT":0.00035907,"MEAN_MOTION_DDOT":0},{"OBJECT_NAME":"STARLINK-34530","OBJECT_ID":"2025-133V","EPOCH":"2025-10-23T13:55:12.788832","MEAN_MOTION":15.39632439,"ECCENTRICITY":0.0001118,"INCLINATION":53.1588,"RA_OF_ASC_NODE":35.2641,"ARG_OF_PERICENTER":71.1379,"MEAN_ANOMALY":288.9747,"EPHEMERIS_TYPE":0,"CLASSIFICATION_TYPE":"U","NORAD_CAT_ID":64491,"ELEMENT_SET_NO":999,"REV_AT_EPOCH":2015,"BSTAR":0.00083811,"MEAN_MOTION_DOT":0.00033284,"MEAN_MOTION_DDOT":0},{"OBJECT_NAME":"STARLINK-34522","OBJECT_ID":"2025-133W","EPOCH":"2025-10-23T13:54:43.291872","MEAN_MOTION":15.39596929,"ECCENTRICITY":0.0001127,"INCLINATION":53.1599,"RA_OF_ASC_NODE":35.2609,"ARG_OF_PERICENTER":56.8349,"MEAN_ANOMALY":303.2764,"EPHEMERIS_TYPE":0,"CLASSIFICATION_TYPE":"U","NORAD_CAT_ID":64492,"ELEMENT_SET_NO":999,"REV_AT_EPOCH":2017,"BSTAR":0.0018351,"MEAN_MOTION_DOT":0.0007366,"MEAN_MOTION_DDOT":0}]
